NORAD_CAT_ID,OBJECT_NAME,OBJECT_TYPE,EPOCH,MEAN_MOTION,ECCENTRICITY,INCLINATION,RA_OF_ASC_NODE,ARG_OF_PERICENTER,MEAN_ANOMALY,BSTAR,MEAN_MOTION_DOT,MEAN_MOTION_DDOT,TLE_LINE0,TLE_LINE1,TLE_LINE2,SEMIMAJOR_AXIS,PERIOD,APOGEE,PERIGEE,DECAYED
52306.0,STARLINK-3747,PAYLOAD,2022-12-25 13:48:46,15.08841856,0.0002236,53.2172,301.9634,35.1671,324.9468,8.0293e-05,9.9e-06,0.0,0 STARLINK-3747,1 52306U 22041AX  22359.57553334  .00000990  00000-0  80293-4 0  9995,2 52306  53.2172 301.9634 0002236  35.1671 324.9468 15.08841856 39217,6917.875,95.437,541.2869999999998,538.193,0.0
52306.0,STARLINK-3747,PAYLOAD,2022-12-26 02:31:51,15.08836083,0.0002297,53.2179,299.5842,41.7704,318.3463,3.2189e-05,2.24e-06,0.0,0 STARLINK-3747,1 52306U 22041AX  22360.10545867  .00000224  00000-0  32189-4 0  9999,2 52306  53.2179 299.5842 0002297  41.7704 318.3463 15.08836083 39290,6917.892,95.438,541.346,538.168,0.0
52306.0,STARLINK-3747,PAYLOAD,2022-12-26 04:07:14,15.08839053,0.0002287,53.2177,299.2868,39.9223,320.1937,5.1772e-05,5.36e-06,0.0,0 STARLINK-3747,1 52306U 22041AX  22360.17169805  .00000536  00000-0  51772-4 0  9995,2 52306  53.2177 299.2868 0002287  39.9223 320.1937 15.08839053 39306,6917.8830000000025,95.438,541.33,538.1659999999998,0.0
52306.0,STARLINK-3747,PAYLOAD,2022-12-26 13:39:33,15.08844754,0.0002278,53.2177,297.5027,41.5532,318.5633,0.00016825,2.391e-05,0.0,0 STARLINK-3747,1 52306U 22041AX  22360.56913528  .00002391  00000-0  16825-3 0  9997,2 52306  53.2177 297.5027 0002278  41.5532 318.5633 15.08844754 39360,6917.866,95.437,541.307,538.155,0.0
52306.0,STARLINK-3747,PAYLOAD,2022-12-26 20:01:05,15.08846072,0.0002265,53.2173,296.3135,39.4819,320.6338,0.00017843,2.553e-05,0.0,0 STARLINK-3747,1 52306U 22041AX  22360.83409508  .00002553  00000-0  17843-3 0  9996,2 52306  53.2173 296.3135 0002265  39.4819 320.6338 15.08846072 39409,6917.861999999999,95.437,541.294,538.16,0.0
52306.0,STARLINK-3747,PAYLOAD,2022-12-27 05:33:24,15.088523,0.0002237,53.2172,294.529,41.1788,318.9373,0.00020366,2.956e-05,0.0,0 STARLINK-3747,1 52306U 22041AX  22361.23153073  .00002956  00000-0  20366-3 0  9995,2 52306  53.2172 294.5290 0002237  41.1788 318.9373 15.08852300 39460,6917.843000000003,95.437,541.255,538.16,0.0
52306.0,STARLINK-3747,PAYLOAD,2022-12-27 19:51:51,15.08861589,0.0002313,53.217,291.8531,41.3381,318.7786,0.00047594,7.299e-05,0.0,0 STARLINK-3747,1 52306U 22041AX  22361.82768398  .00007299  00000-0  47594-3 0  9999,2 52306  53.2170 291.8531 0002313  41.3381 318.7786 15.08861589 39557,6917.814,95.436,541.279,538.0790000000002,0.0
52306.0,STARLINK-3747,PAYLOAD,2022-12-27 21:27:15,15.0886437,0.0002331,53.2169,291.5558,41.304,318.8128,0.00052678,8.111e-05,0.0,0 STARLINK-3747,1 52306U 22041AX  22361.89392386  .00008111  00000-0  52678-3 0  9999,2 52306  53.2169 291.5558 0002331  41.3040 318.8128 15.08864370 39566,6917.806,95.436,541.283,538.058,0.0
52306.0,STARLINK-3747,PAYLOAD,2022-12-27 23:02:38,15.08866996,0.0002351,53.2169,291.2585,41.1655,318.9514,0.00055351,8.538e-05,0.0,0 STARLINK-3747,1 52306U 22041AX  22361.96016278  .00008538  00000-0  55351-3 0  9994,2 52306  53.2169 291.2585 0002351  41.1655 318.9514 15.08866996 39572,6917.7980000000025,95.436,541.289,538.036,0.0
52306.0,STARLINK-3747,PAYLOAD,2022-12-28 00:38:01,15.08867505,0.0002348,53.217,290.9612,41.1209,318.996,0.00051408,7.909e-05,0.0,0 STARLINK-3747,1 52306U 22041AX  22362.02640104  .00007909  00000-0  51408-3 0  9993,2 52306  53.2170 290.9612 0002348  41.1209 318.9960 15.08867505 39585,6917.795999999999,95.436,541.286,538.0369999999998,0.0
52306.0,STARLINK-3747,PAYLOAD,2022-12-29 05:14:57,15.08839256,0.0001615,53.2166,285.6085,78.8976,281.2198,-7.6844e-05,-1.511e-05,0.0,0 STARLINK-3747,1 52306U 22041AX  22363.21872259 -.00001511  00000-0 -76844-4 0  9990,2 52306  53.2166 285.6085 0001615  78.8976 281.2198 15.08839256 39766,6917.8830000000025,95.438,540.865,538.63,0.0
52306.0,STARLINK-3747,PAYLOAD,2022-12-30 00:19:36,15.08828212,0.0002438,53.2177,282.0411,51.7165,308.4046,3.5638e-05,2.79e-06,0.0,0 STARLINK-3747,1 52306U 22041AX  22364.01362019  .00000279  00000-0  35638-4 0  9991,2 52306  53.2177 282.0411 0002438  51.7165 308.4046 15.08828212 39883,6917.916,95.438,541.4680000000002,538.095,0.0
52306.0,STARLINK-3747,PAYLOAD,2022-12-30 11:27:17,15.08845979,0.0001932,53.2164,279.9593,43.3129,316.8014,0.00029552,4.419e-05,0.0,0 STARLINK-3747,1 52306U 22041AX  22364.47729156  .00004419  00000-0  29552-3 0  9997,2 52306  53.2164 279.9593 0001932  43.3129 316.8014 15.08845979 39955,6917.861999999999,95.437,541.064,538.391,0.0
52306.0,STARLINK-3747,PAYLOAD,2022-12-31 04:56:31,15.08882173,0.0002299,53.2154,276.6869,37.3327,322.7824,0.00092058,0.0001440999999999,0.0,0 STARLINK-3747,1 52306U 22041AX  22365.20592081  .00014410  00000-0  92058-3 0  9997,2 52306  53.2154 276.6869 0002299  37.3327 322.7824 15.08882173 40060,6917.751,95.435,541.207,538.026,0.0
52306.0,STARLINK-3747,PAYLOAD,2022-12-31 11:18:03,15.08870896,0.0002497,53.2171,275.4954,44.5524,315.5669,0.00027578,4.107e-05,0.0,0 STARLINK-3747,1 52306U 22041AX  22365.47087737  .00004107  00000-0  27578-3 0  9990,2 52306  53.2171 275.4954 0002497  44.5524 315.5669 15.08870896 40101,6917.786,95.436,541.378,537.924,0.0
52306.0,STARLINK-3747,PAYLOAD,2022-12-31 19:14:59,15.08856814,0.0002073,53.2152,274.0093,36.1664,323.9468,-0.00023927,-4.096e-05,0.0,0 STARLINK-3747,1 52306U 22041AX  22365.80207414 -.00004096  00000-0 -23927-3 0  9996,2 52306  53.2152 274.0093 0002073  36.1664 323.9468 15.08856814 40150,6917.829000000002,95.436,541.128,538.26,0.0
52306.0,STARLINK-3747,PAYLOAD,2023-01-01 03:11:55,15.08832956,0.0002334999999999,53.2158,272.5234,42.207,317.9102,-0.00061451,-0.00010053,0.0,0 STARLINK-3747,1 52306U 22041AX  23001.13327963 -.00010053  00000-0 -61451-3 0  9996,2 52306  53.2158 272.5234 0002335  42.2070 317.9102 15.08832956 40201,6917.901999999999,95.438,541.382,538.1519999999998,0.0
52306.0,STARLINK-3747,PAYLOAD,2023-01-01 11:08:51,15.08820586,0.0002309,53.2156,271.0368,39.9296,320.1866,-0.00018854,-3.286e-05,0.0,0 STARLINK-3747,1 52306U 22041AX  23001.46448775 -.00003286  00000-0 -18854-3 0  9996,2 52306  53.2156 271.0368 0002309  39.9296 320.1866 15.08820586 40259,6917.94,95.439,541.4019999999998,538.207,0.0
52306.0,STARLINK-3747,PAYLOAD,2023-01-01 17:30:24,15.0881423,0.0002346,53.2159,269.8482,37.9479,322.1678,8.612200000000001e-05,1.082e-05,0.0,0 STARLINK-3747,1 52306U 22041AX  23001.72945419  .00001082  00000-0  86122-4 0  9996,2 52306  53.2159 269.8482 0002346  37.9479 322.1678 15.08814230 40292,6917.959,95.439,541.447,538.201,0.0
52306.0,STARLINK-3747,PAYLOAD,2023-01-01 23:51:57,15.08814907,0.0002316999999999,53.2154,268.6583,42.0577,318.0593,0.00037672,5.708e-05,0.0,0 STARLINK-3747,1 52306U 22041AX  23001.99441913  .00005708  00000-0  37672-3 0  9999,2 52306  53.2154 268.6583 0002317  42.0577 318.0593 15.08814907 40336,6917.956999999999,95.439,541.425,538.219,0.0
52306.0,STARLINK-3747,PAYLOAD,2023-01-02 10:59:39,15.08835466,0.0002381,53.2159,266.5769,42.7099,317.4078,0.00079726,0.00012422,0.0,0 STARLINK-3747,1 52306U 22041AX  23002.45810121  .00012422  00000-0  79726-3 0  9999,2 52306  53.2159 266.5769 0002381  42.7099 317.4078 15.08835466 40403,6917.894,95.438,541.406,538.112,0.0
52306.0,STARLINK-3747,PAYLOAD,2023-01-03 02:53:31,15.08839614,0.0002431,53.2163,263.6036,40.5052,319.612,0.00048795,7.486e-05,0.0,0 STARLINK-3747,1 52306U 22041AX  23003.12050475  .00007486  00000-0  48795-3 0  9998,2 52306  53.2163 263.6036 0002431  40.5052 319.6120 15.08839614 40506,6917.882,95.438,541.428,538.065,0.0
52306.0,STARLINK-3747,PAYLOAD,2023-01-03 10:50:27,15.08847092,0.0002418,53.2164,262.1168,40.6881,319.4292,0.00064268,9.957e-05,0.0,0 STARLINK-3747,1 52306U 22041AX  23003.45170395  .00009957  00000-0  64268-3 0  9996,2 52306  53.2164 262.1168 0002418  40.6881 319.4292 15.08847092 40555,6917.859,95.437,541.396,538.0509999999998,0.0
52306.0,STARLINK-3747,PAYLOAD,2023-01-03 23:33:32,15.08832264,0.0002452,53.2181,259.73900000000003,34.4735,325.6416,8.3095e-06,-1.56e-06,0.0,0 STARLINK-3747,1 52306U 22041AX  23003.98162836 -.00000156  00000-0  83095-5 0  9999,2 52306  53.2181 259.7390 0002452  34.4735 325.6416 15.08832264 40631,6917.904,95.438,541.465,538.073,0.0
52306.0,STARLINK-3747,PAYLOAD,2023-01-05 02:35:06,15.08838054,0.0002269,53.2167,254.682,36.0803,324.0342,0.0001169,1.573e-05,0.0,0 STARLINK-3747,1 52306U 22041AX  23005.10771074  .00001573  00000-0  11690-3 0  9998,2 52306  53.2167 254.6820 0002269  36.0803 324.0342 15.08838054 40800,6917.886,95.438,541.321,538.182,0.0
52306.0,STARLINK-3747,PAYLOAD,2023-01-05 08:56:38,15.08838279,0.0002222,53.2164,253.4939,36.0052,324.1089,0.00014117,1.959e-05,0.0,0 STARLINK-3747,1 52306U 22041AX  23005.37267105  .00001959  00000-0  14117-3 0  9997,2 52306  53.2164 253.4939 0002222  36.0052 324.1089 15.08838279 40842,6917.886,95.438,541.288,538.2130000000002,0.0
52306.0,STARLINK-3747,PAYLOAD,2023-01-05 16:53:34,15.08838909,0.0002208,53.2161,252.0062,35.0212,325.0925,0.00018661,2.683e-05,0.0,0 STARLINK-3747,1 52306U 22041AX  23005.70387095  .00002683  00000-0  18661-3 0  9998,2 52306  53.2161 252.0062 0002208  35.0212 325.0925 15.08838909 40896,6917.884,95.438,541.276,538.221,0.0
52306.0,STARLINK-3747,PAYLOAD,2023-01-06 16:44:21,15.08841656,0.000226,53.2158,247.5459,38.3158,321.7994,0.0001435,1.996e-05,0.0,0 STARLINK-3747,1 52306U 22041AX  23006.69747292  .00001996  00000-0  14350-3 0  9993,2 52306  53.2158 247.5459 0002260  38.3158 321.7994 15.08841656 41044,6917.875,95.437,541.304,538.177,0.0
52306.0,STARLINK-3747,PAYLOAD,2023-01-06 23:05:53,15.08850525,0.0002233,53.2153,246.3568,39.9148,320.2008,0.00027807,4.141e-05,0.0,0 STARLINK-3747,1 52306U 22041AX  23006.96242872  .00004141  00000-0  27807-3 0  9993,2 52306  53.2153 246.3568 0002233  39.9148 320.2008 15.08850525 41082,6917.848000000001,95.437,541.258,538.168,0.0
